SIRION PATHFINDER-2     
1 43759U 18099B   22347.41625932  .00001960  00000+0  17461-3 0  9992
2 43759  97.6004  49.3684 0014499  26.8111 333.3857 14.97071441219817
ELYSIUM STAR 2 & LFF    
1 43760U 18099C   22347.16612576  .00007648  00000+0  60720-3 0  9991
2 43760  97.6040  51.8997 0007274  29.0782 331.0846 15.00743302219906
2018-099D               
1 43761U 18099D   22347.58132854  .00001765  00000+0  16057-3 0  9992
2 43761  97.6009  49.3671 0014815  33.0850 327.1300 14.96382538219807
STPSAT-5                
1 43762U 18099E   22347.44717315  .00002185  00000+0  19076-3 0  9990
2 43762  97.6043  51.4281 0014149  31.2368 328.9693 14.97751898220043
POLAR SCOUT KODIAK      
1 43764U 18099G   22347.13915014  .00005526  00000+0  45148-3 0  9995
2 43764  97.6087  52.8308 0016524  35.6392 324.5932 14.99678904219978
HAWK-A                  
1 43765U 18099H   22347.50163473  .00001956  00000+0  17124-3 0  9997
2 43765  97.5982  50.8493 0015078  33.3005 326.9163 14.97759415219937
SPAWAR-CAL-O            
1 43766U 18099J   22347.84026656  .00003728  00000+0  32460-3 0  9995
2 43766  97.5970  48.7577 0011155  31.4999 328.6889 14.97465224219821
CORVUS BC4              
1 43767U 18099K   22347.44167376  .00002427  00000+0  21848-3 0  9990
2 43767  97.5942  47.6351 0011897  33.9576 326.2405 14.96474289219738
AISTECHSAT 2            
1 43768U 18099L   22347.41308077  .00002211  00000+0  19914-3 0  9995
2 43768  97.5963  47.6190 0011938  34.8533 325.3469 14.96542565219443
FLOCK 3S-1              
1 43769U 18099M   22347.42183091  .00004970  00000+0  43688-3 0  9993
2 43769  97.6002  48.2913 0014480  37.7189 322.5045 14.96908328219771
FOX-1CLIFF (AO-95)      
1 43770U 18099N   22347.00737998  .00003231  00000+0  28194-3 0  9994
2 43770  97.6012  48.6164 0015056  42.3881 317.8501 14.97442596219727
2018-099P               
1 43771U 18099P   22347.14020889  .00004168  00000+0  35968-3 0  9991
2 43771  97.6019  48.9839 0015013  41.5890 318.6472 14.97714622219741
RANGE-A                 
1 43772U 18099Q   22347.44622544  .00004492  00000+0  38093-3 0  9993
2 43772  97.6113  51.1865 0013237  25.3067 334.8802 14.98377605219827
RANGE-B                 
1 43773U 18099R   22347.12539199  .00003059  00000+0  27190-3 0  9996
2 43773  97.5922  47.2952 0013812  31.2881 328.9160 14.96762138219713
HIBER-2                 
1 43774U 18099S   22347.42335945  .00004359  00000+0  36803-3 0  9998
2 43774  97.6082  50.6577 0012802  28.8835 331.3094 14.98566678219821
2018-099T               
1 43775U 18099T   22347.12639951  .00002661  00000+0  23794-3 0  9999
2 43775  97.6001  48.6906 0014992  34.8546 325.3654 14.96630662219721
SPAWAR-CAL-R            
1 43776U 18099U   22347.43481338  .00001416  00000+0  13045-3 0  9993
2 43776  97.5980  48.5760 0015003  32.7573 327.4576 14.96188761219741
SPAWAR-CAL-OR           
1 43778U 18099W   22347.13457850  .00003622  00000+0  31558-3 0  9994
2 43778  97.5894  47.0212 0014429  37.6757 322.5473 14.97428742219336
2018-099X               
1 43779U 18099X   22347.12064094  .00002118  00000+0  19161-3 0  9993
2 43779  97.5992  48.4522 0014969  34.4602 325.7587 14.96380367219709
MOVE-II                 
1 43780U 18099Y   22347.44643813  .00005650  00000+0  46520-3 0  9995
2 43780  97.6028  50.6881 0011598  34.5709 325.6266 14.99426871219863
SNUSAT-2                
1 43782U 18099AA  22347.17185220  .00003074  00000+0  26809-3 0  9996
2 43782  97.5997  49.2815 0012436  26.3588 333.8265 14.97525257219772
KAZSTSAT                
1 43783U 18099AB  22347.18301353  .00001349  00000+0  13078-3 0  9992
2 43783  97.6086  47.2390 0008742  41.2955 318.8925 14.94275610219495
SNUGLITE                
1 43784U 18099AC  22347.44628728  .00003498  00000+0  30170-3 0  9999
2 43784  97.5956  49.1711 0014700  33.1091 327.1049 14.97844835219844
ORBWEAVER 2             
1 43785U 18099AD  22347.17224853  .00008117  00000+0  63090-3 0  9991
2 43785  97.5987  51.2255 0017522  21.5151 338.6806 15.01437730219485
ITASAT 1                
1 43786U 18099AE  22347.59159139  .00003317  00000+0  28926-3 0  9998
2 43786  97.6028  50.1887 0015183  33.7498 326.4688 14.97449265219856
KAZSCISAT-1             
1 43787U 18099AF  22347.43676679  .00005487  00000+0  45401-3 0  9992
2 43787  97.5937  49.4405 0012706  22.8540 337.3246 14.99235399219907
EAGLET-I                
1 43790U 18099AJ  22347.27379758  .00002963  00000+0  25890-3 0  9992
2 43790  97.6033  50.4223 0014027  38.6424 321.5799 14.97466404219542
CAPELLA-1-DENALI        
1 43791U 18099AK  22347.19589390  .00205532  00000+0  50035-2 0  9994
2 43791  97.6495  69.6628 0004799 335.5932  24.5086 15.40114321220733
ESEO                    
1 43792U 18099AL  22347.42391369  .00000970  00000+0  89965-4 0  9993
2 43792  97.5976  49.4921 0013896  34.2706 325.9409 14.96625646219595
CSIM-FD                 
1 43793U 18099AM  22347.14032627  .00006773  00000+0  54659-3 0  9990
2 43793  97.6098  51.4791 0015378  31.5018 328.7124 15.00086591219651
HAWK-B                  
1 43794U 18099AN  22347.43522229  .00002152  00000+0  18794-3 0  9992
2 43794  97.5982  50.7846 0015108  33.8573 326.3610 14.97756094219918
ORBWEAVER 1             
1 43795U 18099AP  22347.16222018  .00008774  00000+0  67123-3 0  9992
2 43795  97.5974  52.9416 0003792  29.6474 330.4965 15.02128821219991
THEA                    
1 43796U 18099AQ  22347.13991420  .00004750  00000+0  39922-3 0  9996
2 43796  97.6053  51.1496 0014707  19.1746 341.0028 14.98676726218795
SKYSAT-C12              
1 43797U 18099AR  22347.41913290  .00012433  00000+0  32157-3 0  9997
2 43797  97.1054  48.9661 0001321 100.1941 259.9455 15.39219029224991
ASTROCAST 0.1           
1 43798U 18099AS  22347.45676465  .00004196  00000+0  35065-3 0  9990
2 43798  97.6028  51.4073 0011126  15.4973 344.6588 14.98997369219910
HAWK-C                  
1 43799U 18099AT  22347.43500759  .00002120  00000+0  18518-3 0  9990
2 43799  97.5980  50.6896 0015024  33.6139 326.6034 14.97757618220668
ICEYE-X2                
1 43800U 18099AU  22347.76034275  .00002774  00000+0  24238-3 0  9995
2 43800  97.6044  50.0160 0014710  27.2753 332.9218 14.97504097219868
2018-099AV              
1 43801U 18099AV  22347.63004965  .00006350  00000+0  51189-3 0  9994
2 43801  97.5981  50.9950 0011620   9.6407 350.5045 15.00190738219942
SKYSAT-C13              
1 43802U 18099AW  22347.41648267  .00012752  00000+0  32065-3 0  9995
2 43802  97.1329  48.0389 0001387  84.1362 276.0043 15.40078980224489
JY1SAT (JO-97)          
1 43803U 18099AX  22346.87057469  .00004268  00000+0  36373-3 0  9992
2 43803  97.6003  49.3158 0015397  35.5059 324.7185 14.98180224219772
SUOMI-100               
1 43804U 18099AY  22347.43742980  .00003636  00000+0  31202-3 0  9999
2 43804  97.5978  49.7475 0014758  30.0448 330.1619 14.98011867219860
AL-FARABI 2             
1 43805U 18099AZ  22347.60791877  .00006154  00000+0  51227-3 0  9995
2 43805  97.6031  50.6359 0015445  32.1495 328.0669 14.98927489219927
2018-099BA              
1 43806U 18099BA  22347.59222887  .00003361  00000+0  29378-3 0  9993
2 43806  97.5962  49.3508 0014907  31.5251 328.6869 14.97351749219552
EUCROPIS                
1 43807U 18099BB  22347.43517113  .00003065  00000+0  26479-3 0  9996
2 43807  97.6045  50.5799 0012566  26.9162 333.2710 14.97893659219277
POLAR SCOUT YUKON       
1 43808U 18099BC  22347.44765632  .00003649  00000+0  31058-3 0  9996
2 43808  97.6047  50.9571 0011862  36.8806 323.3230 14.98357679219584
CENTAURI-1              
1 43809U 18099BD  22347.44784151  .00002660  00000+0  23266-3 0  9998
2 43809  97.5993  50.0003 0015074  33.3036 326.9131 14.97500060219550
2018-099BE              
1 43810U 18099BE  22347.60723471  .00003060  00000+0  26950-3 0  9994
2 43810  97.5874  47.9599 0014887  28.1864 332.0161 14.97120494219423
NEXTSAT-1               
1 43811U 18099BF  22347.42260844  .00001399  00000+0  12661-3 0  9992
2 43811  97.6002  49.7148 0013506  30.9024 329.2990 14.96903390219391
GLOBAL-2                
1 43812U 18099BG  22347.42385815  .00001433  00000+0  12917-3 0  9992
2 43812  97.5969  49.3443 0013958  33.5449 326.6654 14.97039451219429
BRIO                    
1 43813U 18099BH  22347.43853141  .00005001  00000+0  41235-3 0  9996
2 43813  97.6178  53.4781 0013217  12.9869 347.1692 14.99409536219639
FALCONSAT-6             
1 43815U 18099BK  22347.20637127  .00022656  00000+0  17567-2 0  9992
2 43815  97.6363  52.4164 0028890  11.1530 349.0328 15.01060320219567
SPACEBEE-7              
1 43816U 18099BL  22347.46060599  .00005048  00000+0  42064-3 0  9991
2 43816  97.6058  51.4080 0012335  22.6796 337.4969 14.99003085219454
SPACEBEE-5              
1 43817U 18099BM  22347.64723355  .00013428  00000+0  94747-3 0  9994
2 43817  97.6170  55.9072 0005214  25.2752 334.8729 15.05069414219685
SPACEBEE-6              
1 43818U 18099BN  22347.13045750  .00007134  00000+0  56645-3 0  9997
2 43818  97.6101  52.3851 0017050  26.4716 333.7375 15.00671089219610
EXCITE                  
1 43819U 18099BP  22347.13109868  .00002128  00000+0  19104-3 0  9996
2 43819  97.5970  48.8517 0014044  37.4339 322.7858 14.96684472219366
SEAHAWK-1               
1 43820U 18099BQ  22347.11181184  .00003192  00000+0  27630-3 0  9992
2 43820  97.5944  49.0127 0012204  24.8342 335.3465 14.97791972219212
GEO-KOMPSAT-2A          
1 43823U 18100A   22346.38288764 -.00000327  00000+0  00000+0 0  9994
2 43823   0.0556 125.5537 0000104 331.7783 249.8502  1.00270684 14758
GSAT-11                 
1 43824U 18100B   22347.76536281 -.00000059  00000+0  00000+0 0  9990
2 43824   0.0387 258.2329 0002285 225.2823 308.4436  1.00272212 14788
SAUDISAT 5A             
1 43831U 18102A   22347.74078740  .00002902  00000+0  18228-3 0  9992
2 43831  97.4796  56.7582 0012164 285.2160 232.4139 15.09988713221228
